NORAD_CAT_ID,OBJECT_NAME,OBJECT_TYPE,EPOCH,MEAN_MOTION,ECCENTRICITY,INCLINATION,RA_OF_ASC_NODE,ARG_OF_PERICENTER,MEAN_ANOMALY,BSTAR,MEAN_MOTION_DOT,MEAN_MOTION_DDOT,TLE_LINE0,TLE_LINE1,TLE_LINE2,SEMIMAJOR_AXIS,PERIOD,APOGEE,PERIGEE,DECAYED
51733.0,STARLINK-3525,PAYLOAD,2023-10-10 01:58:36,15.08843573,0.0001575,53.2166,316.8204,94.0652,266.0521,0.00012668,1.729e-05,0.0,0 STARLINK-3525,1 51733U 22016V   23283.08236912  .00001729  00000-0  12668-3 0  9994,2 51733  53.2166 316.8204 0001575  94.0652 266.0521 15.08843573 91536,6917.869,95.437,540.824,538.645,0.0
51733.0,STARLINK-3525,PAYLOAD,2023-10-10 09:55:32,15.08848776,0.0001629,53.2165,315.3345,77.8804,282.2371,0.00021147,3.08e-05,0.0,0 STARLINK-3525,1 51733U 22016V   23283.41356821  .00003080  00000-0  21147-3 0  9997,2 51733  53.2165 315.3345 0001629  77.8804 282.2371 15.08848776 90524,6917.854,95.437,540.845,538.592,0.0
51733.0,STARLINK-3525,PAYLOAD,2023-10-10 19:27:51,15.08840091,0.0001539,53.2164,313.5509,93.8825,266.2343,3.8685e-05,3.28e-06,0.0,0 STARLINK-3525,1 51733U 22016V   23283.81100981  .00000328  00000-0  38685-4 0  9993,2 51733  53.2164 313.5509 0001539  93.8825 266.2343 15.08840091 90585,6917.88,95.438,540.81,538.68,0.0
51733.0,STARLINK-3525,PAYLOAD,2023-10-11 01:49:24,15.08837555,0.0001705,53.2151,312.3641,86.2817,273.837,2.133e-05,5.1e-07,0.0,0 STARLINK-3525,1 51733U 22016V   23284.07597254  .00000051  00000-0  21330-4 0  9997,2 51733  53.2151 312.3641 0001705  86.2817 273.8370 15.08837555 91684,6917.888,95.438,540.932,538.573,0.0
51733.0,STARLINK-3525,PAYLOAD,2023-10-11 09:46:19,15.08839219,0.0001607,53.2154,310.8742,99.2171,260.9003,-2.4821e-05,-6.83e-06,0.0,0 STARLINK-3525,1 51733U 22016V   23284.40717346 -.00000683  00000-0 -24821-4 0  9991,2 51733  53.2154 310.8742 0001607  99.2171 260.9003 15.08839219 90677,6917.883,95.438,540.859,538.636,0.0
51733.0,STARLINK-3525,PAYLOAD,2023-10-12 04:50:57,15.08843305,0.0001689,53.2151,307.3058,92.9044,267.2142,0.00016899,2.403e-05,0.0,0 STARLINK-3525,1 51733U 22016V   23285.20205402  .00002403  00000-0  16899-3 0  9990,2 51733  53.2151 307.3058 0001689  92.9044 267.2142 15.08843305 91850,6917.87,95.437,540.904,538.567,0.0
51733.0,STARLINK-3525,PAYLOAD,2023-10-12 08:01:43,15.08849027,0.0001671,53.2157,306.7104,93.7756,266.3427,0.00020622,2.996e-05,0.0,0 STARLINK-3525,1 51733U 22016V   23285.33453129  .00002996  00000-0  20622-3 0  9991,2 51733  53.2157 306.7104 0001671  93.7756 266.3427 15.08849027 90819,6917.853,95.437,540.874,538.562,0.0
51733.0,STARLINK-3525,PAYLOAD,2023-10-12 19:09:25,15.08839535,0.0001604,53.2149,304.6292,96.1012,264.0163,0.00012942,1.772e-05,0.0,0 STARLINK-3525,1 51733U 22016V   23285.79821605  .00001772  00000-0  12942-3 0  9996,2 51733  53.2149 304.6292 0001604  96.1012 264.0163 15.08839535 90885,6917.882,95.438,540.856,538.637,0.0
51733.0,STARLINK-3525,PAYLOAD,2023-10-13 04:41:44,15.0883794,0.0001684,53.215,302.8451,96.2684,263.85,0.00017584,2.511e-05,0.0,0 STARLINK-3525,1 51733U 22016V   23286.19565882  .00002511  00000-0  17584-3 0  9992,2 51733  53.2150 302.8451 0001684  96.2684 263.8500 15.08837940 92004,6917.887,95.438,540.917,538.587,0.0
51733.0,STARLINK-3525,PAYLOAD,2023-10-13 07:52:31,15.08841001,0.0001696,53.2162,302.2516,88.3754,271.7432,0.00015399,2.164e-05,0.0,0 STARLINK-3525,1 51733U 22016V   23286.32813772  .00002164  00000-0  15399-3 0  9997,2 51733  53.2162 302.2516 0001696  88.3754 271.7432 15.08841001 90964,6917.877,95.437,540.916,538.569,0.0
51733.0,STARLINK-3525,PAYLOAD,2023-10-14 04:32:30,15.08864173,0.0001737,53.2168,298.3872,85.0869,275.0322,0.00046747,7.164e-05,0.0,0 STARLINK-3525,1 51733U 22016V   23287.18924447  .00007164  00000-0  46747-3 0  9990,2 51733  53.2168 298.3872 0001737  85.0869 275.0322 15.08864173 92150,6917.807,95.436,540.873,538.47,0.0
51733.0,STARLINK-3525,PAYLOAD,2023-10-14 07:43:16,15.08876699,0.0001722,53.216,297.7904,86.8923,273.2266,0.00080884,0.00012621,0.0,0 STARLINK-3525,1 51733U 22016V   23287.32172016  .00012621  00000-0  80884-3 0  9997,2 51733  53.2160 297.7904 0001722  86.8923 273.2266 15.08876699 91113,6917.768,95.435,540.824,538.442,0.0
51733.0,STARLINK-3525,PAYLOAD,2023-10-14 17:15:35,15.08851194,0.0001797,53.2156,296.003,82.5482,277.5714,2.3213e-05,8.1e-07,0.0,0 STARLINK-3525,1 51733U 22016V   23287.71916432  .00000081  00000-0  23213-4 0  9999,2 51733  53.2156 296.0030 0001797  82.5482 277.5714 15.08851194 92237,6917.846,95.437,540.954,538.468,0.0
51733.0,STARLINK-3525,PAYLOAD,2023-10-15 04:23:18,15.0881515,0.0001409,53.2163,293.9244,90.1306,269.9848,-0.00072556,-0.00011809,0.0,0 STARLINK-3525,1 51733U 22016V   23288.18285243 -.00011809  00000-0 -72556-3 0  9995,2 51733  53.2163 293.9244 0001409  90.1306 269.9848 15.08815150 92301,6917.956,95.439,540.796,538.847,0.0
51733.0,STARLINK-3525,PAYLOAD,2023-10-15 07:34:04,15.08815885,0.0001363,53.2163,293.3294,90.6435,269.4714,-0.00027552,-4.667e-05,0.0,0 STARLINK-3525,1 51733U 22016V   23288.31533512 -.00004667  00000-0 -27552-3 0  9995,2 51733  53.2163 293.3294 0001363  90.6435 269.4714 15.08815885 91263,6917.954,95.439,540.762,538.876,0.0
51733.0,STARLINK-3525,PAYLOAD,2023-10-15 17:06:24,15.08819533,0.0001274,53.2164,291.5447,96.1177,263.996,0.00093789,0.00014662,0.0,0 STARLINK-3525,1 51733U 22016V   23288.71278428  .00014662  00000-0  93789-3 0  9990,2 51733  53.2164 291.5447 0001274  96.1177 263.9960 15.08819533 92389,6917.943,95.439,540.689,538.927,0.0
51733.0,STARLINK-3525,PAYLOAD,2023-10-16 09:00:16,15.0885152,0.0001204,53.2156,288.5719,98.9184,261.1945,0.0015485,0.0002445,0.0,0 STARLINK-3525,1 51733U 22016V   23289.37518631  .00024450  00000-0  15485-2 0  9998,2 51733  53.2156 288.5719 0001204  98.9184 261.1945 15.08851520 92485,6917.845,95.437,540.543,538.877,0.0
51733.0,STARLINK-3525,PAYLOAD,2023-10-17 08:51:02,15.08859795,0.0001214,53.2151,284.1104,101.1243,258.9886,0.00075768,0.00011798,0.0,0 STARLINK-3525,1 51733U 22016V   23290.36878091  .00011798  00000-0  75768-3 0  9990,2 51733  53.2151 284.1104 0001214 101.1243 258.9886 15.08859795 92631,6917.82,95.436,540.525,538.845,0.0
51733.0,STARLINK-3525,PAYLOAD,2023-10-17 16:47:58,15.08850388,0.0001631,53.216,282.6234,88.7011,271.4168,0.00046185,7.072e-05,0.0,0 STARLINK-3525,1 51733U 22016V   23290.69998294  .00007072  00000-0  46185-3 0  9995,2 51733  53.2160 282.6234 0001631  88.7011 271.4168 15.08850388 91624,6917.849,95.437,540.842,538.585,0.0
51733.0,STARLINK-3525,PAYLOAD,2023-10-18 05:31:03,15.08844574,0.0001269,53.2153,280.2453,91.6758,268.438,0.00021702,3.168e-05,0.0,0 STARLINK-3525,1 51733U 22016V   23291.22990149  .00003168  00000-0  21702-3 0  9996,2 51733  53.2153 280.2453 0001269  91.6758 268.4380 15.08844574 92769,6917.866,95.437,540.609,538.854,0.0
51733.0,STARLINK-3525,PAYLOAD,2023-10-19 05:21:50,15.0884728,0.0001362,53.2155,275.7836,94.5959,265.5189,0.00043316,6.614e-05,0.0,0 STARLINK-3525,1 51733U 22016V   23292.22350230  .00006614  00000-0  43316-3 0  9992,2 51733  53.2155 275.7836 0001362  94.5959 265.5189 15.08847280 92913,6917.858,95.437,540.665,538.781,0.0
51733.0,STARLINK-3525,PAYLOAD,2023-10-19 16:29:32,15.08853719,0.0001462,53.2152,273.703,88.2833,271.8327,0.0005661,8.736e-05,0.0,0 STARLINK-3525,1 51733U 22016V   23292.68718065  .00008736  00000-0  56610-3 0  9994,2 51733  53.2152 273.7030 0001462  88.2833 271.8327 15.08853719 91924,6917.838,95.437,540.715,538.692,0.0
51733.0,STARLINK-3525,PAYLOAD,2023-10-20 05:12:37,15.08849781,0.0001765,53.2164,271.3229,97.7891,262.3301,0.00039231,5.963e-05,0.0,0 STARLINK-3525,1 51733U 22016V   23293.21709979  .00005963  00000-0  39231-3 0  9997,2 51733  53.2164 271.3229 0001765  97.7891 262.3301 15.08849781 93064,6917.85,95.437,540.936,538.494,0.0
51733.0,STARLINK-3525,PAYLOAD,2023-10-20 08:23:23,15.08854645,0.0001817,53.2167,270.7268,101.962,258.1576,0.00040117,6.105e-05,0.0,0 STARLINK-3525,1 51733U 22016V   23293.34957720  .00006105  00000-0  40117-3 0  9994,2 51733  53.2167 270.7268 0001817 101.9620 258.1576 15.08854645 92026,6917.836,95.437,540.958,538.444,0.0
51733.0,STARLINK-3525,PAYLOAD,2023-10-20 22:41:52,15.08831318,0.000158,53.2167,268.0522,98.4423,261.6748,-0.00010764,-2e-05,0.0,0 STARLINK-3525,1 51733U 22016V   23293.94574660 -.00002000  00000-0 -10764-3 0  9995,2 51733  53.2167 268.0522 0001580  98.4423 261.6748 15.08831318 92119,6917.907,95.438,540.865,538.679,0.0
51733.0,STARLINK-3525,PAYLOAD,2023-10-21 01:52:38,15.0883417,0.000176,53.2165,267.4577,101.9896,258.1294,-2.4462e-05,-6.77e-06,0.0,0 STARLINK-3525,1 51733U 22016V   23294.07822722 -.00000677  00000-0 -24462-4 0  9994,2 51733  53.2165 267.4577 0001760 101.9896 258.1294 15.08834170 93199,6917.898,95.438,540.981,538.546,0.0
51733.0,STARLINK-3525,PAYLOAD,2023-10-21 05:03:25,15.08835386,0.0001621,53.2177,266.8639,97.9096,262.208,-1.3039e-05,-4.96e-06,0.0,0 STARLINK-3525,1 51733U 22016V   23294.21070765 -.00000496  00000-0 -13039-4 0  9999,2 51733  53.2177 266.8639 0001621  97.9096 262.2080 15.08835386 92150,6917.894,95.438,540.881,538.638,0.0
51733.0,STARLINK-3525,PAYLOAD,2023-10-21 22:32:39,15.08847966,0.0001518,53.2172,263.5888,99.408,260.7084,0.00025645,3.797e-05,0.0,0 STARLINK-3525,1 51733U 22016V   23294.93934077  .00003797  00000-0  25645-3 0  9993,2 51733  53.2172 263.5888 0001518  99.4080 260.7084 15.08847966 92266,6917.856,95.437,540.771,538.671,0.0
51733.0,STARLINK-3525,PAYLOAD,2023-10-22 04:54:11,15.08865901,0.0001394,53.2172,262.4031,91.2878,268.8274,0.00062118,9.619e-05,0.0,0 STARLINK-3525,1 51733U 22016V   23295.20429637  .00009619  00000-0  62118-3 0  9990,2 51733  53.2172 262.4031 0001394  91.2878 268.8274 15.08865901 93362,6917.801,95.436,540.631,538.702,0.0
51733.0,STARLINK-3525,PAYLOAD,2023-10-22 14:26:29,15.08858654,9.35e-05,53.2174,260.6179,66.8198,293.2892,0.00036448,5.521e-05,0.0,0 STARLINK-3525,1 51733U 22016V   23295.60173131  .00005521  00000-0  36448-3 0  9994,2 51733  53.2174 260.6179 0000935  66.8198 293.2892 15.08858654 93422,6917.823,95.436,540.335,539.042,0.0
